{"type": "FeatureCollection", "features": [ {"type": "Feature", "properties": {"norad_id": 32289, "name": "YAOGAN-3", "group": "resource", "lat": 34.31931449963867, "lon": -164.3321909354367, "alt_km": 595.9857699696859, "timestamp": "2025-12-09T14:52:25.822442+00:00", "meta": {"OBJECT_NAME": "YAOGAN-3", "OBJECT_ID": "2007-055A", "EPOCH": "2025-12-09T07:46:36.048576", "MEAN_MOTION": 14.89833601, "ECCENTRICITY": 0.00014429, "INCLINATION": 97.8366, "RA_OF_ASC_NODE": 9.9799, "ARG_OF_PERICENTER": 72.3207, "MEAN_ANOMALY": 287.8168, "EPHEMERIS_TYPE": 0, "CLASSIFICATION_TYPE": "U", "NORAD_CAT_ID": 32289, "ELEMENT_SET_NO": 999, "REV_AT_EPOCH": 97758, "BSTAR": 0.00039835929, "MEAN_MOTION_DOT": 3.771e-05, "MEAN_MOTION_DDOT": 0}, "tle": {"line1": "1 32289U 07055A   25343.32402834  .00003771  00000+0  39836-3 0  9993", "line2": "2 32289  97.8366   9.9799 0001442  72.3207 287.8168 14.89833601977589"}}, "geometry": {"type": "Point", "coordinates": [-164.3321909354367, 34.31931449963867]}}, {"type": "Feature", "properties": {"norad_id": 32376, "name": "COSMO-SKYMED 2", "group": "resource", "lat": 29.152225959497496, "lon": -10.578290610288468, "alt_km": 620.7054828570981, "timestamp": "2025-12-09T14:52:25.822453+00:00", "meta": {"OBJECT_NAME": "COSMO-SKYMED 2", "OBJECT_ID": "2007-059A", "EPOCH": "2025-12-09T07:42:59.241600", "MEAN_MOTION": 14.82160079, "ECCENTRICITY": 0.00015316, "INCLINATION": 97.8812, "RA_OF_ASC_NODE": 164.6967, "ARG_OF_PERICENTER": 85.7615, "MEAN_ANOMALY": 274.3773, "EPHEMERIS_TYPE": 0, "CLASSIFICATION_TYPE": "U", "NORAD_CAT_ID": 32376, "ELEMENT_SET_NO": 999, "REV_AT_EPOCH": 97387, "BSTAR": 0.00013915711, "MEAN_MOTION_DOT": 1.056e-05, "MEAN_MOTION_DDOT": 0}, "tle": {"line1": "1 32376U 07059A   25343.32151900  .00001056  00000+0  13916-3 0  9994", "line2": "2 32376  97.8812 164.6967 0001531  85.7615 274.3773 14.82160079973874"}}, "geometry": {"type": "Point", "coordinates": [-10.578290610288468, 29.152225959497496]}}, {"type": "Feature", "properties": {"norad_id": 32382, "name": "RADARSAT-2", "group": "resource", "lat": -35.2046260281892, "lon": -5.630708417298899, "alt_km": 798.4009336121508, "timestamp": "2025-12-09T14:52:25.822464+00:00", "meta": {"OBJECT_NAME": "RADARSAT-2", "OBJECT_ID": "2007-061A", "EPOCH": "2025-12-09T06:38:37.705056", "MEAN_MOTION": 14.29986642, "ECCENTRICITY": 0.00010899, "INCLINATION": 98.5795, "RA_OF_ASC_NODE": 347.917, "ARG_OF_PERICENTER": 86.1777, "MEAN_ANOMALY": 273.953, "EPHEMERIS_TYPE": 0, "CLASSIFICATION_TYPE": "U", "NORAD_CAT_ID": 32382, "ELEMENT_SET_NO": 999, "REV_AT_EPOCH": 93881, "BSTAR": 0.00016575886, "MEAN_MOTION_DOT": 3.84e-06, "MEAN_MOTION_DDOT": 0}, "tle": {"line1": "1 32382U 07061A   25343.27682529  .00000384  00000+0  16576-3 0  9992", "line2": "2 32382  98.5795 347.9170 0001089  86.1777 273.9530 14.29986642938817"}}, "geometry": {"type": "Point", "coordinates": [-5.630708417298899, -35.2046260281892]}}, {"type": "Feature", "properties": {"norad_id": 32783, "name": "CARTOSAT-2A", "group": "resource", "lat": -33.4966223343371, "lon": 38.740636697509274, "alt_km": 633.1839470282002, "timestamp": "2025-12-09T14:52:25.822479+00:00", "meta": {"OBJECT_NAME": "CARTOSAT-2A", "OBJECT_ID": "2008-021A", "EPOCH": "2025-12-09T06:54:26.429760", "MEAN_MOTION": 14.78925843, "ECCENTRICITY": 0.00122122, "INCLINATION": 97.793, "RA_OF_ASC_NODE": 33.219, "ARG_OF_PERICENTER": 15.3963, "MEAN_ANOMALY": 344.7618, "EPHEMERIS_TYPE": 0, "CLASSIFICATION_TYPE": "U", "NORAD_CAT_ID": 32783, "ELEMENT_SET_NO": 999, "REV_AT_EPOCH": 95073, "BSTAR": 0.0001394826, "MEAN_MOTION_DOT": 9.79e-06, "MEAN_MOTION_DDOT": 0}, "tle": {"line1": "1 32783U 08021A   25343.28780590  .00000979  00000+0  13948-3 0  9992", "line2": "2 32783  97.7930  33.2190 0012212  15.3963 344.7618 14.78925843950731"}}, "geometry": {"type": "Point", "coordinates": [38.740636697509274, -33.4966223343371]}}, {"type": "Feature", "properties": {"norad_id": 33320, "name": "HUANJING 1A (HJ-1A)", "group": "resource", "lat": 37.4585009230319, "lon": 157.96203764555173, "alt_km": 617.9518326730968, "timestamp": "2025-12-09T14:52:25.822502+00:00", "meta": {"OBJECT_NAME": "HUANJING 1A (HJ-1A)", "OBJECT_ID": "2008-041A", "EPOCH": "2025-12-09T06:08:33.808704", "MEAN_MOTION": 14.83377186, "ECCENTRICITY": 0.00203673, "INCLINATION": 97.654, "RA_OF_ASC_NODE": 331.6995, "ARG_OF_PERICENTER": 45.2605, "MEAN_ANOMALY": 315.0263, "EPHEMERIS_TYPE": 0, "CLASSIFICATION_TYPE": "U", "NORAD_CAT_ID": 33320, "ELEMENT_SET_NO": 999, "REV_AT_EPOCH": 93024, "BSTAR": 0.00033463832, "MEAN_MOTION_DOT": 2.703e-05, "MEAN_MOTION_DDOT": 0}, "tle": {"line1": "1 33320U 08041A   25343.25594686  .00002703  00000+0  33464-3 0  9990", "line2": "2 33320  97.6540 331.6995 0020367  45.2605 315.0263 14.83377186930246"}}, "geometry": {"type": "Point", "coordinates": [157.96203764555173, 37.4585009230319]}}, {"type": "Feature", "properties": {"norad_id": 33321, "name": "HUANJING 1B (HJ-1B)", "group": "resource", "lat": 8.72875197632754, "lon": -25.427333038248687, "alt_km": 615.9693840157197, "timestamp": "2025-12-09T14:52:25.822524+00:00", "meta": {"OBJECT_NAME": "HUANJING 1B (HJ-1B)", "OBJECT_ID": "2008-041B", "EPOCH": "2025-12-09T06:44:11.611680", "MEAN_MOTION": 14.82808501, "ECCENTRICITY": 0.00382619, "INCLINATION": 97.6397, "RA_OF_ASC_NODE": 335.4295, "ARG_OF_PERICENTER": 86.5932, "MEAN_ANOMALY": 273.9657, "EPHEMERIS_TYPE": 0, "CLASSIFICATION_TYPE": "U", "NORAD_CAT_ID": 33321, "ELEMENT_SET_NO": 999, "REV_AT_EPOCH": 93026, "BSTAR": 0.00030095756, "MEAN_MOTION_DOT": 2.414e-05, "MEAN_MOTION_DDOT": 0}, "tle": {"line1": "1 33321U 08041B   25343.28068995  .00002414  00000+0  30096-3 0  9990", "line2": "2 33321  97.6397 335.4295 0038261  86.5932 273.9657 14.82808501930265"}}, "geometry": {"type": "Point", "coordinates": [-25.427333038248687, 8.72875197632754]}}, {"type": "Feature", "properties": {"norad_id": 33331, "name": "GEOEYE 1", "group": "resource", "lat": -17.27855729833679, "lon": -127.60773796847603, "alt_km": 682.7608405512847, "timestamp": "2025-12-09T14:52:25.822538+00:00", "meta": {"OBJECT_NAME": "GEOEYE 1", "OBJECT_ID": "2008-042A", "EPOCH": "2025-12-09T07:25:03.878688", "MEAN_MOTION": 14.64805966, "ECCENTRICITY": 0.00027783, "INCLINATION": 98.1256, "RA_OF_ASC_NODE": 54.6326, "ARG_OF_PERICENTER": 291.9409, "MEAN_ANOMALY": 68.1499, "EPHEMERIS_TYPE": 0, "CLASSIFICATION_TYPE": "U", "NORAD_CAT_ID": 33331, "ELEMENT_SET_NO": 999, "REV_AT_EPOCH": 92235, "BSTAR": 0.00022502443, "MEAN_MOTION_DOT": 1.153e-05, "MEAN_MOTION_DDOT": 0}, "tle": {"line1": "1 33331U 08042A   25343.30907267  .00001153  00000+0  22502-3 0  9991", "line2": "2 33331  98.1256  54.6326 0002778 291.9409  68.1499 14.64805966922357"}}, "geometry": {"type": "Point", "coordinates": [-127.60773796847603, -17.27855729833679]}}, {"type": "Feature", "properties": {"norad_id": 33396, "name": "THEOS", "group": "resource", "lat": -15.529453501750034, "lon": -140.60511504364592, "alt_km": 829.8837801506543, "timestamp": "2025-12-09T14:52:25.822550+00:00", "meta": {"OBJECT_NAME": "THEOS", "OBJECT_ID": "2008-049A", "EPOCH": "2025-12-09T07:11:30.623136", "MEAN_MOTION": 14.20095568, "ECCENTRICITY": 0.00011177, "INCLINATION": 98.5867, "RA_OF_ASC_NODE": 41.4906, "ARG_OF_PERICENTER": 95.6368, "MEAN_ANOMALY": 264.4937, "EPHEMERIS_TYPE": 0, "CLASSIFICATION_TYPE": "U", "NORAD_CAT_ID": 33396, "ELEMENT_SET_NO": 999, "REV_AT_EPOCH": 89101, "BSTAR": 0.0001446133, "MEAN_MOTION_DOT": 2.65e-06, "MEAN_MOTION_DDOT": 0}, "tle": {"line1": "1 33396U 08049A   25343.29965999  .00000265  00000+0  14461-3 0  9991", "line2": "2 33396  98.5867  41.4906 0001117  95.6368 264.4937 14.20095568891014"}}, "geometry": {"type": "Point", "coordinates": [-140.60511504364592, -15.529453501750034]}}, {"type": "Feature", "properties": {"norad_id": 33412, "name": "COSMO-SKYMED 3", "group": "resource", "lat": 46.28940369861435, "lon": -174.33482841693552, "alt_km": 554.695363050073, "timestamp": "2025-12-09T14:52:25.822569+00:00", "meta": {"OBJECT_NAME": "COSMO-SKYMED 3", "OBJECT_ID": "2008-054A", "EPOCH": "2025-12-09T06:41:20.171616", "MEAN_MOTION": 15.05296172, "ECCENTRICITY": 0.00158449, "INCLINATION": 97.8456, "RA_OF_ASC_NODE": 193.6118, "ARG_OF_PERICENTER": 185.8045, "MEAN_ANOMALY": 174.3, "EPHEMERIS_TYPE": 0, "CLASSIFICATION_TYPE": "U", "NORAD_CAT_ID": 33412, "ELEMENT_SET_NO": 999, "REV_AT_EPOCH": 92835, "BSTAR": 0.00030164162, "MEAN_MOTION_DOT": 4.261e-05, "MEAN_MOTION_DDOT": 0}, "tle": {"line1": "1 33412U 08054A   25343.27870569  .00004261  00000+0  30164-3 0  9990", "line2": "2 33412  97.8456 193.6118 0015844 185.8045 174.3000 15.05296172928356"}}, "geometry": {"type": "Point", "coordinates": [-174.33482841693552, 46.28940369861435]}}, {"type": "Feature", "properties": {"norad_id": 33446, "name": "YAOGAN-4", "group": "resource", "lat": -75.38926802882969, "lon": -53.98259505892991, "alt_km": 622.1960586005252, "timestamp": "2025-12-09T14:52:25.822580+00:00", "meta": {"OBJECT_NAME": "YAOGAN-4", "OBJECT_ID": "2008-061A", "EPOCH": "2025-12-09T07:07:28.002432", "MEAN_MOTION": 14.82666442, "ECCENTRICITY": 0.00138766, "INCLINATION": 97.9178, "RA_OF_ASC_NODE": 273.4298, "ARG_OF_PERICENTER": 334.9799, "MEAN_ANOMALY": 25.074, "EPHEMERIS_TYPE": 0, "CLASSIFICATION_TYPE": "U", "NORAD_CAT_ID": 33446, "ELEMENT_SET_NO": 999, "REV_AT_EPOCH": 91752, "BSTAR": 0.00035478857, "MEAN_MOTION_DOT": 2.811e-05, "MEAN_MOTION_DDOT": 0}, "tle": {"line1": "1 33446U 08061A   25343.29685188  .00002811  00000+0  35479-3 0  9991", "line2": "2 33446  97.9178 273.4298 0013876 334.9799  25.0740 14.82666442917522"}}, "geometry": {"type": "Point", "coordinates": [-53.98259505892991, -75.38926802882969]}}]}